{
  "norad_id": 59302,
  "name": "STARLINK-31447",
  "history": [
    {
      "epoch": "2026-03-28T18:41:31.737984",
      "apogee_km": 483.56331040098394,
      "perigee_km": 482.7893542570964,
      "latitude_deg": 19.24490868808099,
      "longitude_deg": -175.03140224004164,
      "semi_major_axis_km": 6861.313332329039,
      "eccentricity": 5.64e-05,
      "inclination_deg": 43.0007,
      "raan_deg": 122.9103,
      "arg_perigee_deg": 278.3022,
      "mean_anomaly_deg": 81.7766,
      "mean_motion_rev_day": 15.27537509
    },
    {
      "epoch": "2026-03-29T02:32:19.442976",
      "apogee_km": 484.0642476293506,
      "perigee_km": 482.3091210308985,
      "latitude_deg": 42.93451689638685,
      "longitude_deg": -143.64506335998885,
      "semi_major_axis_km": 6861.323684330124,
      "eccentricity": 0.0001279,
      "inclination_deg": 42.9987,
      "raan_deg": 121.0647,
      "arg_perigee_deg": 306.6064,
      "mean_anomaly_deg": 53.467,
      "mean_motion_rev_day": 15.27534052
    }
  ]
}